LEMUR-1                 
1 40044U 14033AL  26162.16320866  .00002005  00000+0  23504-3 0  9995
2 40044  97.7866 312.1029 0049749  97.8711 262.8156 14.85222289644570
LEMUR-2-GREENBERG       
1 42837U 17042N   26161.74817130  .00014567  00000+0  48598-3 0  9994
2 42837  97.3819 342.4043 0009149  36.3346 323.8515 15.31129963487401
LEMUR-2-ANDIS           
1 42838U 17042P   26160.74878637  .00021256  00000+0  63563-3 0  9995
2 42838  97.3682 341.5686 0008771  38.8690 321.3182 15.34551135487318
LEMUR-2-MONSON          
1 42839U 17042Q   26162.00500459  .00012667  00000+0  46797-3 0  9997
2 42839  97.4076 342.6414 0006828  27.7700 332.3903 15.27848617487227
LEMUR-2-FURIAUS         
1 42840U 17042R   26161.41040731  .00016426  00000+0  56652-3 0  9993
2 42840  97.3771 340.0388 0008501  89.8327 270.3888 15.30030493487172
LEMUR-2-PETERG          
1 42841U 17042S   26162.22897928  .00017364  00000+0  53534-3 0  9990
2 42841  97.3987 347.2515 0003723  20.0355 340.1033 15.33656035487528
LEMUR-2-DEMBITZ         
1 42842U 17042T   26162.01908772  .00014024  00000+0  48320-3 0  9995
2 42842  97.3820 343.6620 0007274  49.2144 310.9727 15.30107084487400
LEMUR-2-ZACHARY         
1 42845U 17042W   26162.25072406  .00038823  00000+0  69805-3 0  9994
2 42845  97.3606 353.7641 0003323  55.3333 304.8231 15.49749100488289
LEMUR-2-AMANDA-SVANTE   
1 48269U 21034B   26162.16106586  .00025885  00000+0  78927-3 0  9992
2 48269  97.5765 240.2895 0001546 230.7421 129.3685 15.33932852280134
LEMUR-2-SPECIAL-K       
1 48273U 21034F   26162.19783083  .00118767  00000+0  13060-2 0  9991
2 48273  97.5656 248.6294 0003602 231.2158 128.8778 15.62774367280753
LEMUR-2-EMBRIONOVIS     
1 56970U 23084AQ  26162.27913268  .00011035  00000+0  30293-3 0  9998
2 56970  97.6277 306.2531 0008096 343.5923  16.5057 15.37400304166777
LEMUR-2-DEVERILL-M-T    
1 57391U 23100F   26162.06064810  .00024781  00000+0  63344-3 0  9997
2 57391  99.4481 199.0510 0006899  69.1156 291.0821 15.39450579160308
LEMUR-2-BASS            
1 58259U 23174D   26162.17910674  .00014790  00000+0  33827-3 0  9994
2 58259  97.3847 246.8085 0007295 181.4976 178.6251 15.42893119144430
LEMUR-2-JK0903EM1407    
1 58336U 23174CJ  26162.21023925  .00022865  00000+0  38952-3 0  9995
2 58336  97.3916 252.5139 0005950 136.2348 223.9377 15.51370914144801
LEMUR-2-MJR092620       
1 58340U 23174CN  26162.19929933  .00016653  00000+0  35872-3 0  9997
2 58340  97.3973 252.1191 0007114 135.0115 225.1711 15.44653453144727
LEMUR-2-NIMBUS2000      
1 58899U 24022A   26162.10051322  .00015536  00000+0  39308-3 0  9995
2 58899  97.4121  12.0267 0010106 134.5329 225.6745 15.39802396131336
LEMUR-2-VALHALLA        
1 58900U 24022B   26162.09547220  .00014660  00000+0  37482-3 0  9991
2 58900  97.4118  12.0157 0010668 130.7678 229.4495 15.39487943131332
LEMUR-2-OBA-NI-JESU     
1 58902U 24022D   26162.11443895  .02051285  24124-5  12386-2 0  9999
2 58902  97.3665  27.0135 0005866 221.6403 138.4440 16.18306341132354
LEMUR-2-CAEL            
1 58903U 24022E   26162.11041878  .00016015  00000+0  39247-3 0  9992
2 58903  97.4102  12.9560 0009231 115.4631 244.7571 15.40777192131401
LEMUR-2-JOHNNYTRUONG    
1 59146U 24043BA  26162.05724702  .00034220  00000+0  42364-3 0  9994
2 59146  97.5366 313.3837 0004593 194.4972 165.6153 15.60009338127088
LEMUR-2-TOMATOKECHUP    
1 60471U 24149D   26162.17890456  .00009493  00000+0  27392-3 0  9995
2 60471  97.3799 244.2108 0000846 190.0298 170.0929 15.35903465101249
LEMUR-2-STELLA          
1 60533U 24149BT  26162.19083908  .00009280  00000+0  54897-3 0  9996
2 60533  97.6733 244.6199 0001661  99.6109 260.5309 15.11675589 99592
LEMUR-2-MARHISYAM       
1 60536U 24149BW  26162.16899298  .00009479  00000+0  56897-3 0  9995
2 60536  97.6882 245.0409 0003191 128.1580 231.9938 15.11136823 99571
LEMUR-2-AHMED-ASRAR     
1 60576U 24149DN  26162.20888646  .00008952  00000+0  51667-3 0  9994
2 60576  97.7002 247.1509 0002335  57.7435 302.4021 15.12575555 99666
LEMUR-2-LLOYD           
1 60577U 24149DP  26162.20764234  .00008059  00000+0  51179-3 0  9997
2 60577  97.6751 243.3339 0004703 152.9813 207.1661 15.09122593 99493
LEMUR-2-SQUIRRELCOMM    
1 60578U 24149DQ  26162.21363769  .00004708  00000+0  31772-3 0  9991
2 60578  97.6716 243.1440 0007003  78.9236 281.2779 15.07084976 99503
LEMUR-2-SIERRINI        
1 60579U 24149DR  26162.19125912  .00009015  00000+0  54603-3 0  9999
2 60579  97.6835 244.7572 0005354 183.8711 176.2478 15.10815950 99552
LEMUR-2-WILSON          
1 62694U 25009CP  26162.20566049  .00001603  00000+0  15125-3 0  9998
2 62694  97.7023 240.7753 0004364  69.6897 290.4793 14.95138222 76461
LEMUR-2-STAR-FOX        
1 62696U 25009CR  26162.16546740  .00006662  00000+0  50723-3 0  9994
2 62696  97.6952 243.8175 0003202 127.1650 232.9868 15.02413354 76658
